OBJECT_NAME,OBJECT_ID,EPOCH,MEAN_MOTION,ECCENTRICITY,INCLINATION,RA_OF_ASC_NODE,ARG_OF_PERICENTER,MEAN_ANOMALY,EPHEMERIS_TYPE,CLASSIFICATION_TYPE,NORAD_CAT_ID,ELEMENT_SET_NO,REV_AT_EPOCH,BSTAR,MEAN_MOTION_DOT,MEAN_MOTION_DDOT
STARLINK-37374,2026-111F,2026-06-17T05:24:46.914336,15.49145398,.00021693,53.1608,153.1393,68.6189,291.5051,0,U,69153,999,424,.66979699E-3,.36766E-3,0
STARLINK-37235,2026-111G,2026-06-17T02:49:36.469344,15.49334826,.00011498,53.1590,153.8958,111.9709,248.1422,0,U,69154,999,422,.80508217E-3,.44624E-3,0
STARLINK-37329,2026-111H,2026-06-17T20:00:01.999008,15.55264690,.0001135,53.1605,148.8171,80.7133,49.7800,0,U,69155,999,565,-.40914E-1,-.2455315E-1,0
STARLINK-37345,2026-111J,2026-06-17T20:00:01.999008,15.56927152,.0001229,53.1609,148.7460,81.6061,83.5956,0,U,69156,999,565,-.38587E-1,-.2463483E-1,0
STARLINK-37353,2026-111K,2026-06-17T20:00:01.999008,15.57281050,.0001225,53.1602,148.7352,88.3943,82.0246,0,U,69157,999,565,-.37876E-1,-.2452314E-1,0
STARLINK-37363,2026-111L,2026-06-17T20:00:01.999008,15.57122869,.0001335,53.1606,148.7413,82.1347,85.2773,0,U,69158,999,565,-.37693E-1,-.2429484E-1,0
STARLINK-37343,2026-111M,2026-06-17T13:09:02.407392,15.49327988,.0000506,53.1616,151.5941,86.8180,273.2887,0,U,69159,999,429,.84188E-3,.46685E-3,0
STARLINK-37328,2026-111N,2026-06-17T20:00:01.999008,15.57842506,.000132,53.1606,148.6946,87.3805,102.5908,0,U,69160,999,565,-.37201E-1,-.2459463E-1,0
STARLINK-37311,2026-111P,2026-06-17T20:00:01.999008,15.60852302,.0001282,53.1596,148.7605,83.7520,74.7295,0,U,69161,999,565,-.32912E-1,-.244513E-1,0
STARLINK-36286,2026-111Q,2026-06-17T20:00:01.999008,15.49238893,.000191,53.1598,149.1385,109.8321,221.9785,0,U,69162,999,565,.15893E-2,.88731E-3,0
STARLINK-37196,2026-111R,2026-06-17T20:00:01.999008,15.62104517,.0001277,53.1599,148.7599,87.4009,70.8780,0,U,69163,999,565,-.3228E-1,-.2508895E-1,0
STARLINK-36288,2026-111S,2026-06-17T20:00:01.999008,15.49221130,.000103,53.1598,149.1087,111.4786,234.8107,0,U,69164,999,565,.18378E-2,.102801E-2,0
STARLINK-37445,2026-111T,2026-06-17T20:00:01.999008,15.49236523,.0000678,53.1597,149.2125,79.5033,215.4173,0,U,69165,999,565,.1607E-2,.8973E-3,0
STARLINK-37491,2026-111U,2026-06-17T20:00:01.999008,15.55433108,.0000914,53.1597,148.8981,92.9839,357.0021,0,U,69166,999,565,-.40719E-1,-.245834E-1,0
STARLINK-37474,2026-111V,2026-06-17T20:00:01.999008,15.60195739,.0001429,53.1598,148.7541,93.8212,67.2967,0,U,69167,999,565,-.87794E-2,-.670947E-2,0
STARLINK-37469,2026-111W,2026-06-17T02:43:17.921568,15.49333154,.00009569,53.1592,153.8628,100.3726,259.7391,0,U,69168,999,422,.89219412E-3,.49529E-3,0
STARLINK-37515,2026-111X,2026-06-17T20:00:01.999008,15.51893771,.0001215,53.1600,148.9691,98.7032,315.9224,0,U,69169,999,565,-.48533E-1,-.2610942E-1,0
STARLINK-37437,2026-111Y,2026-06-17T20:00:01.999008,15.55514928,.0001233,53.1608,148.8017,80.6146,56.4006,0,U,69170,999,565,-.4018E-1,-.2436784E-1,0
STARLINK-37392,2026-111Z,2026-06-17T20:00:01.999008,15.54818122,.0001135,53.1603,148.8945,71.4641,19.5017,0,U,69171,999,565,-.11095E-1,-.690444E-2,0
STARLINK-37472,2026-111AA,2026-06-17T20:00:01.999008,15.49269633,.0000491,53.1598,149.4263,110.0035,77.4326,0,U,69172,999,565,.13942E-2,.7776E-3,0
STARLINK-37461,2026-111AB,2026-06-17T05:37:23.584800,15.49318483,.00009681,53.1595,153.1915,87.2437,272.8683,0,U,69173,999,424,.60913969E-3,.33586E-3,0
STARLINK-37333,2026-111AC,2026-06-17T20:00:01.999008,15.49191273,.0000556,53.1600,149.1314,82.6023,251.7450,0,U,69174,999,565,.18292E-2,.102199E-2,0
STARLINK-37385,2026-111AD,2026-06-17T10:05:01.354848,15.49318180,.0001176,53.1606,152.2151,96.7110,263.4033,0,U,69175,999,427,.11015858E-2,.6132E-3,0
STARLINK-37414,2026-111AE,2026-06-17T20:00:01.999008,15.50387995,.000084,53.1601,148.9389,126.3973,302.4223,0,U,69176,999,565,-.28347E-1,-.1485233E-1,0
STRIX-7,2026-112A,2026-06-17T15:18:52.706592,15.01436692,.00232,44.9069,190.0810,49.7522,310.5374,0,U,69177,999,394,.1393E-3,.1601E-4,0
SHENZHOU-23 (SZ-23),2026-113A,2026-06-17T10:11:54.531744,15.60819135,.00074482,41.4698,320.5549,79.0954,281.0722,0,U,69180,999,29311,.22523707E-3,.19059E-3,0
STARLINK-37380,2026-114A,2026-06-17T14:23:18.737088,15.78078837,.0001192,53.1571,200.4510,86.4626,273.6532,0,U,69182,999,483,.47031E-3,.81864E-3,0
STARLINK-37089,2026-114B,2026-06-17T08:17:10.393152,15.78296635,.00002498,53.1578,201.7099,108.7388,251.3661,0,U,69183,999,479,.18747203E-2,.341913E-2,0
STARLINK-37428,2026-114C,2026-06-17T14:19:56.483328,15.78115396,.0000942,53.1572,200.4360,106.6559,253.4566,0,U,69184,999,483,.11536E-2,.205069E-2,0
