STARLINK-37374          
1 69153U 26111F   26168.22554299  .00036766  00000+0  66980-3 0  9995
2 69153  53.1608 153.1393 0002169  68.6189 291.5051 15.49145398  4242
STARLINK-37235          
1 69154U 26111G   26168.11778321  .00044624  00000+0  80508-3 0  9992
2 69154  53.1590 153.8958 0001149 111.9709 248.1422 15.49334826  4228
STARLINK-37329          
1 69155U 26111H   26168.83335647 -.02455315  00000+0 -40914-1 0  9994
2 69155  53.1605 148.8171 0001135  80.7133  49.7800 15.55264690  5657
STARLINK-37345          
1 69156U 26111J   26168.83335647 -.02463483  00000+0 -38587-1 0  9993
2 69156  53.1609 148.7460 0001229  81.6061  83.5956 15.56927152  5654
STARLINK-37353          
1 69157U 26111K   26168.83335647 -.02452314  00000+0 -37876-1 0  9995
2 69157  53.1602 148.7352 0001225  88.3943  82.0246 15.57281050  5654
STARLINK-37363          
1 69158U 26111L   26168.83335647 -.02429484  00000+0 -37693-1 0  9995
2 69158  53.1606 148.7413 0001335  82.1347  85.2773 15.57122869  5651
STARLINK-37343          
1 69159U 26111M   26168.54794453  .00046685  00000+0  84188-3 0  9995
2 69159  53.1616 151.5941 0000506  86.8180 273.2887 15.49327988  4290
STARLINK-37328          
1 69160U 26111N   26168.83335647 -.02459463  00000+0 -37201-1 0  9993
2 69160  53.1606 148.6946 0001320  87.3805 102.5908 15.57842506  5654
STARLINK-37311          
1 69161U 26111P   26168.83335647 -.02445130  00000+0 -32912-1 0  9994
2 69161  53.1596 148.7605 0001282  83.7520  74.7295 15.60852302  5655
STARLINK-36286          
1 69162U 26111Q   26168.83335647  .00088731  00000+0  15893-2 0  9991
2 69162  53.1598 149.1385 0001910 109.8321 221.9785 15.49238893  5655
STARLINK-37196          
1 69163U 26111R   26168.83335647 -.02508895  00000+0 -32280-1 0  9992
2 69163  53.1599 148.7599 0001277  87.4009  70.8780 15.62104517  5655
STARLINK-36288          
1 69164U 26111S   26168.83335647  .00102801  00000+0  18378-2 0  9999
2 69164  53.1598 149.1087 0001030 111.4786 234.8107 15.49221130  5650
STARLINK-37445          
1 69165U 26111T   26168.83335647  .00089730  00000+0  16070-2 0  9992
2 69165  53.1597 149.2125 0000678  79.5033 215.4173 15.49236523  5650
STARLINK-37491          
1 69166U 26111U   26168.83335647 -.02458340  00000+0 -40719-1 0  9990
2 69166  53.1597 148.8981 0000914  92.9839 357.0021 15.55433108  5652
STARLINK-37474          
1 69167U 26111V   26168.83335647 -.00670947  00000+0 -87794-2 0  9993
2 69167  53.1598 148.7541 0001429  93.8212  67.2967 15.60195739  5652
STARLINK-37469          
1 69168U 26111W   26168.11340187  .00049529  00000+0  89219-3 0  9999
2 69168  53.1592 153.8628 0000956 100.3726 259.7391 15.49333154  4221
STARLINK-37515          
1 69169U 26111X   26168.83335647 -.02610942  00000+0 -48533-1 0  9993
2 69169  53.1600 148.9691 0001215  98.7032 315.9224 15.51893771  5653
STARLINK-37437          
1 69170U 26111Y   26168.83335647 -.02436784  00000+0 -40180-1 0  9995
2 69170  53.1608 148.8017 0001233  80.6146  56.4006 15.55514928  5653
STARLINK-37392          
1 69171U 26111Z   26168.83335647 -.00690444  00000+0 -11095-1 0  9992
2 69171  53.1603 148.8945 0001135  71.4641  19.5017 15.54818122  5652
STARLINK-37472          
1 69172U 26111AA  26168.83335647  .00077760  00000+0  13942-2 0  9995
2 69172  53.1598 149.4263 0000491 110.0035  77.4326 15.49269633  5654
STARLINK-37461          
1 69173U 26111AB  26168.23430075  .00033586  00000+0  60914-3 0  9991
2 69173  53.1595 153.1915 0000968  87.2437 272.8683 15.49318483  4247
STARLINK-37333          
1 69174U 26111AC  26168.83335647  .00102199  00000+0  18292-2 0  9995
2 69174  53.1600 149.1314 0000556  82.6023 251.7450 15.49191273  5656
STARLINK-37385          
1 69175U 26111AD  26168.42015457  .00061320  00000+0  11016-2 0  9992
2 69175  53.1606 152.2151 0001176  96.7110 263.4033 15.49318180  4271
STARLINK-37414          
1 69176U 26111AE  26168.83335647 -.01485233  00000+0 -28347-1 0  9994
2 69176  53.1601 148.9389 0000840 126.3973 302.4223 15.50387995  5656
STRIX-7                 
1 69177U 26112A   26168.63811003  .00001601  00000+0  13930-3 0  9993
2 69177  44.9069 190.0810 0023200  49.7522 310.5374 15.01436692  3945
SHENZHOU-23 (SZ-23)     
1 69180U 26113A   26168.42493671  .00019059  00000+0  22524-3 0  9997
2 69180  41.4698 320.5549 0007448  79.0954 281.0722 15.60819135293110
STARLINK-37380          
1 69182U 26114A   26168.59952242  .00081864  00000+0  47031-3 0  9995
2 69182  53.1571 200.4510 0001192  86.4626 273.6532 15.78078837  4834
STARLINK-37089          
1 69183U 26114B   26168.34525918  .00341913  00000+0  18747-2 0  9990
2 69183  53.1578 201.7099 0000249 108.7388 251.3661 15.78296635  4792
STARLINK-37428          
1 69184U 26114C   26168.59718152  .00205069  00000+0  11536-2 0  9992
2 69184  53.1572 200.4360 0000942 106.6559 253.4566 15.78115396  4837
